LANDSAT 9               
1 49260U 21088A   24054.76783593  .00000634  00000+0  15085-3 0  9997
2 49260  98.1999 126.2663 0001436 103.8165 256.3194 14.57094057128027
